[{"OBJECT_NAME":"TRANSPORTER-10 OBJECT AG","OBJECT_ID":"2024-043AG","EPOCH":"2026-03-09T22:12:45.387648","MEAN_MOTION":15.30759727,"ECCENTRICITY":0.00093005,"INCLINATION":97.5471,"RA_OF_ASC_NODE":205.7101,"ARG_OF_PERICENTER":226.5958,"MEAN_ANOMALY":133.4509,"EPHEMERIS_TYPE":0,"CLASSIFICATION_TYPE":"U","NORAD_CAT_ID":59128,"ELEMENT_SET_NO":999,"REV_AT_EPOCH":11192,"BSTAR":0.00032170115,"MEAN_MOTION_DOT":9.498e-5,"MEAN_MOTION_DDOT":0},{"OBJECT_NAME":"STARLINK-32476","OBJECT_ID":"2024-184U","EPOCH":"2026-03-09T05:23:59.588736","MEAN_MOTION":15.30188754,"ECCENTRICITY":0.00014187,"INCLINATION":53.1614,"RA_OF_ASC_NODE":16.2567,"ARG_OF_PERICENTER":79.6804,"MEAN_ANOMALY":280.4357,"EPHEMERIS_TYPE":0,"CLASSIFICATION_TYPE":"U","NORAD_CAT_ID":61550,"ELEMENT_SET_NO":999,"REV_AT_EPOCH":7843,"BSTAR":0.00013413876,"MEAN_MOTION_DOT":3.614e-5,"MEAN_MOTION_DDOT":0}]
